CYGNUS NG-20            
1 58898U 24021A   24101.53547081  .00013460  00000+0  24286-3 0  9996
2 58898  51.6371 290.8381 0004662  54.0709 306.0712 15.50061365 10368
PROGRESS-MS 26          
1 58961U 24029A   24101.53547081  .00013460  00000+0  24286-3 0  9995
2 58961  51.6371 290.8381 0004662  54.0709 306.0712 15.50061365  7961
CREW DRAGON 8           
1 59097U 24042A   24101.53547081  .00013460  00000+0  24286-3 0  9991
2 59097  51.6371 290.8381 0004662  54.0709 306.0712 15.50061365  5173
DRAGON CRS-30           
1 59287U 24054A   24101.53547081  .00013460  00000+0  24286-3 0  9995
2 59287  51.6371 290.8381 0004662  54.0709 306.0712 15.50061365448052
SOYUZ-MS 25             
1 59294U 24055A   24101.53547081  .00013460  00000+0  24286-3 0  9994
2 59294  51.6371 290.8381 0004662  54.0709 306.0712 15.50061365448050
